start=new Date('2023-01-23T00:00:00.000Z').valueOf();
sats=[{"RCS_SIZE":"LARGE","PERIAPSIS":"546.421","OBJECT_ID":"2021-018M","REV_AT_EPOCH":"10437","COUNTRY_CODE":"US","RA_OF_ASC_NODE":"319.0758","PERIOD":"95.592","OBJECT_TYPE":"PAYLOAD","TIME_SYSTEM":"UTC","DECAY_DATE":null,"MEAN_MOTION_DOT":"0.00029697","SITE":"AFETR","EPHEMERIS_TYPE":"0","APOAPSIS":"548.022","TLE_LINE1":"1 47798U 21018M   23022.50747512  .00029697  00000-0  20043-2 0  9991","OBJECT_NAME":"STARLINK-2379","FILE":"3758085","ELEMENT_SET_NO":"999","MEAN_MOTION":"15.06397293","GP_ID":"223597770","ECCENTRICITY":"0.00011560","MEAN_ANOMALY":"270.8428","NORAD_CAT_ID":"47798","CLASSIFICATION_TYPE":"U","REF_FRAME":"TEME","LAUNCH_DATE":"2021-03-11","ARG_OF_PERICENTER":"89.2693","BSTAR":"0.00200430000000","SEMIMAJOR_AXIS":"6925.357","TLE_LINE2":"2 47798  53.0548 319.0758 0001156  89.2693 270.8428 15.06397293104376","EPOCH":"2023-01-22T12:10:45.850368","MEAN_ELEMENT_THEORY":"SGP4","INCLINATION":"53.0548","CENTER_NAME":"EARTH","MEAN_MOTION_DDOT":"0.0000000000000"},{"MEAN_ANOMALY":"252.8645","ECCENTRICITY":"0.00019010","GP_ID":"223593399","MEAN_MOTION":"15.06408106","ELEMENT_SET_NO":"999","FILE":"3757876","MEAN_MOTION_DDOT":"0.0000000000000","CENTER_NAME":"EARTH","INCLINATION":"53.0539","SEMIMAJOR_AXIS":"6925.324","TLE_LINE2":"2 47799  53.0539 320.2760 0001901 107.2553 252.8645 15.06408106104331","MEAN_ELEMENT_THEORY":"SGP4","EPOCH":"2023-01-22T05:43:17.613120","ARG_OF_PERICENTER":"107.2553","BSTAR":"0.00085819000000","LAUNCH_DATE":"2021-03-11","REF_FRAME":"TEME","NORAD_CAT_ID":"47799","CLASSIFICATION_TYPE":"U","PERIOD":"95.592","RA_OF_ASC_NODE":"320.2760","COUNTRY_CODE":"US","REV_AT_EPOCH":"10433","OBJECT_ID":"2021-018N","PERIAPSIS":"545.872","RCS_SIZE":"LARGE","OBJECT_NAME":"STARLINK-2380","TLE_LINE1":"1 47799U 21018N   23022.23839830  .00012527  00000-0  85819-3 0  9994","APOAPSIS":"548.505","EPHEMERIS_TYPE":"0","MEAN_MOTION_DOT":"0.00012527","SITE":"AFETR","DECAY_DATE":null,"OBJECT_TYPE":"PAYLOAD","TIME_SYSTEM":"UTC"},{"BSTAR":"0.00077510000000","ARG_OF_PERICENTER":"102.4699","LAUNCH_DATE":"2021-03-11","REF_FRAME":"TEME","CLASSIFICATION_TYPE":"U","NORAD_CAT_ID":"47800","MEAN_MOTION_DDOT":"0.0000000000000","CENTER_NAME":"EARTH","INCLINATION":"53.0541","TLE_LINE2":"2 47800  53.0541 317.8044 0002341 102.4699 257.6552 15.06401362104428","SEMIMAJOR_AXIS":"6925.344","EPOCH":"2023-01-22T18:59:27.533760","MEAN_ELEMENT_THEORY":"SGP4","FILE":"3758086","MEAN_ANOMALY":"257.6552","ECCENTRICITY":"0.00023410","GP_ID":"223598018","MEAN_MOTION":"15.06401362","ELEMENT_SET_NO":"999","APOAPSIS":"548.831","EPHEMERIS_TYPE":"0","SITE":"AFETR","MEAN_MOTION_DOT":"0.00011283","DECAY_DATE":null,"OBJECT_TYPE":"PAYLOAD","TIME_SYSTEM":"UTC","OBJECT_NAME":"STARLINK-2381","TLE_LINE1":"1 47800U 21018P   23022.79129090  .00011283  00000-0  77510-3 0  9995","RCS_SIZE":"LARGE","PERIOD":"95.592","RA_OF_ASC_NODE":"317.8044","COUNTRY_CODE":"US","REV_AT_EPOCH":"10442","OBJECT_ID":"2021-018P","PERIAPSIS":"545.588"},{"OBJECT_NAME":"STARLINK-2382","TLE_LINE1":"1 47801U 21018Q   23022.82586253  .00038978  00000-0  26228-2 0  9997","EPHEMERIS_TYPE":"0","APOAPSIS":"548.569","MEAN_MOTION_DOT":"0.00038978","SITE":"AFETR","DECAY_DATE":null,"TIME_SYSTEM":"UTC","OBJECT_TYPE":"PAYLOAD","PERIOD":"95.594","RA_OF_ASC_NODE":"322.7383","COUNTRY_CODE":"US","REV_AT_EPOCH":"10435","OBJECT_ID":"2021-018Q","PERIAPSIS":"545.995","RCS_SIZE":"LARGE","MEAN_MOTION_DDOT":"0.0000000000000","CENTER_NAME":"EARTH","INCLINATION":"53.0525","EPOCH":"2023-01-22T19:49:14.522592","TLE_LINE2":"2 47801  53.0525 322.7383 0001858  86.7508 273.3693 15.06377647104358","SEMIMAJOR_AXIS":"6925.417","MEAN_ELEMENT_THEORY":"SGP4","ARG_OF_PERICENTER":"86.7508","BSTAR":"0.00262280000000","LAUNCH_DATE":"2021-03-11","REF_FRAME":"TEME","CLASSIFICATION_TYPE":"U","NORAD_CAT_ID":"47801","MEAN_ANOMALY":"273.3693","ECCENTRICITY":"0.00018580","GP_ID":"223599506","MEAN_MOTION":"15.06377647","ELEMENT_SET_NO":"999","FILE":"3758161"},{"RCS_SIZE":"LARGE","REV_AT_EPOCH":"10404","OBJECT_ID":"2021-018R","PERIAPSIS":"545.964","RA_OF_ASC_NODE":"343.6367","PERIOD":"95.592","COUNTRY_CODE":"US","DECAY_DATE":null,"OBJECT_TYPE":"PAYLOAD","TIME_SYSTEM":"UTC","EPHEMERIS_TYPE":"0","APOAPSIS":"548.476","MEAN_MOTION_DOT":"-0.00001038","SITE":"AFETR","OBJECT_NAME":"STARLINK-2383","TLE_LINE1":"1 47802U 21018R   23022.60653147 -.00001038  00000-0 -50800-4 0  9995","FILE":"3758097","MEAN_ANOMALY":"278.0070","GP_ID":"223598036","MEAN_MOTION":"15.06397872","ECCENTRICITY":"0.00018140","ELEMENT_SET_NO":"999","NORAD_CAT_ID":"47802","CLASSIFICATION_TYPE":"U","BSTAR":"-0.00005080000000","ARG_OF_PERICENTER":"82.1125","LAUNCH_DATE":"2021-03-11","REF_FRAME":"TEME","INCLINATION":"53.0536","EPOCH":"2023-01-22T14:33:24.319008","TLE_LINE2":"2 47802  53.0536 343.6367 0001814  82.1125 278.0070 15.06397872104041","SEMIMAJOR_AXIS":"6925.355","MEAN_ELEMENT_THEORY":"SGP4","MEAN_MOTION_DDOT":"0.0000000000000","CENTER_NAME":"EARTH"},{"REF_FRAME":"TEME","LAUNCH_DATE":"2021-03-11","BSTAR":"-0.00045026000000","ARG_OF_PERICENTER":"87.1556","NORAD_CAT_ID":"47803","CLASSIFICATION_TYPE":"U","CENTER_NAME":"EARTH","MEAN_MOTION_DDOT":"0.0000000000000","EPOCH":"2023-01-22T12:53:13.373376","TLE_LINE2":"2 47803  53.0531 318.9516 0001143  87.1556 272.9564 15.06385689104387","SEMIMAJOR_AXIS":"6925.392","MEAN_ELEMENT_THEORY":"SGP4","INCLINATION":"53.0531","FILE":"3757876","ELEMENT_SET_NO":"999","ECCENTRICITY":"0.00011430","GP_ID":"223593391","MEAN_MOTION":"15.06385689","MEAN_ANOMALY":"272.9564","SITE":"AFETR","MEAN_MOTION_DOT":"-0.00006979","APOAPSIS":"548.049","EPHEMERIS_TYPE":"0","OBJECT_TYPE":"PAYLOAD","TIME_SYSTEM":"UTC","DECAY_DATE":null,"TLE_LINE1":"1 47803U 21018S   23022.53696034 -.00006979  00000-0 -45026-3 0  9992","OBJECT_NAME":"STARLINK-2384","RCS_SIZE":"LARGE","COUNTRY_CODE":"US","PERIOD":"95.593","RA_OF_ASC_NODE":"318.9516","PERIAPSIS":"546.466","OBJECT_ID":"2021-018S","REV_AT_EPOCH":"10438"},{"DECAY_DATE":null,"TIME_SYSTEM":"UTC","OBJECT_TYPE":"PAYLOAD","EPHEMERIS_TYPE":"0","APOAPSIS":"548.863","MEAN_MOTION_DOT":"0.00004748","SITE":"AFETR","OBJECT_NAME":"STARLINK-2385","TLE_LINE1":"1 47804U 21018T   23022.55170738  .00004748  00000-0  33754-3 0  9998","RCS_SIZE":"LARGE","REV_AT_EPOCH":"10438","OBJECT_ID":"2021-018T","PERIAPSIS":"545.630","RA_OF_ASC_NODE":"318.8801","PERIOD":"95.593","COUNTRY_CODE":"US","CLASSIFICATION_TYPE":"U","NORAD_CAT_ID":"47804","ARG_OF_PERICENTER":"89.6025","BSTAR":"0.00033754000000","LAUNCH_DATE":"2021-03-11","REF_FRAME":"TEME","INCLINATION":"53.0555","TLE_LINE2":"2 47804  53.0555 318.8801 0002334  89.6025 270.5232 15.06389211104382","SEMIMAJOR_AXIS":"6925.382","EPOCH":"2023-01-22T13:14:27.517632","MEAN_ELEMENT_THEORY":"SGP4","MEAN_MOTION_DDOT":"0.0000000000000","CENTER_NAME":"EARTH","FILE":"3758027","MEAN_ANOMALY":"270.5232","ECCENTRICITY":"0.00023340","GP_ID":"223596202","MEAN_MOTION":"15.06389211","ELEMENT_SET_NO":"999"},{"RCS_SIZE":"LARGE","COUNTRY_CODE":"US","RA_OF_ASC_NODE":"319.2733","PERIOD":"95.592","PERIAPSIS":"545.385","OBJECT_ID":"2021-018U","REV_AT_EPOCH":"10437","MEAN_MOTION_DOT":"0.00014010","SITE":"AFETR","APOAPSIS":"549.037","EPHEMERIS_TYPE":"0","OBJECT_TYPE":"PAYLOAD","TIME_SYSTEM":"UTC","DECAY_DATE":null,"TLE_LINE1":"1 47805U 21018U   23022.51856670  .00014010  00000-0  95749-3 0  9996","OBJECT_NAME":"STARLINK-2386","FILE":"3758088","ELEMENT_SET_NO":"999","ECCENTRICITY":"0.00026370","GP_ID":"223597811","MEAN_MOTION":"15.06400904","MEAN_ANOMALY":"269.3527","REF_FRAME":"TEME","LAUNCH_DATE":"2021-03-11","ARG_OF_PERICENTER":"90.7764","BSTAR":"0.00095749000000","CLASSIFICATION_TYPE":"U","NORAD_CAT_ID":"47805","CENTER_NAME":"EARTH","MEAN_MOTION_DDOT":"0.0000000000000","SEMIMAJOR_AXIS":"6925.346","TLE_LINE2":"2 47805  53.0529 319.2733 0002637  90.7764 269.3527 15.06400904104377","EPOCH":"2023-01-22T12:26:44.162880","MEAN_ELEMENT_THEORY":"SGP4","INCLINATION":"53.0529"},{"CLASSIFICATION_TYPE":"U","NORAD_CAT_ID":"47806","LAUNCH_DATE":"2021-03-11","ARG_OF_PERICENTER":"75.0003","BSTAR":"0.00104100000000","REF_FRAME":"TEME","SEMIMAJOR_AXIS":"6925.346","TLE_LINE2":"2 47806  53.0527 333.7294 0001998  75.0003 285.1207 15.06400937104186","MEAN_ELEMENT_THEORY":"SGP4","EPOCH":"2023-01-22T14:08:11.830848","INCLINATION":"53.0527","MEAN_MOTION_DDOT":"0.0000000000000","CENTER_NAME":"EARTH","FILE":"3758089","MEAN_MOTION":"15.06400937","GP_ID":"223597824","ECCENTRICITY":"0.00019980","MEAN_ANOMALY":"285.1207","ELEMENT_SET_NO":"999","DECAY_DATE":null,"OBJECT_TYPE":"PAYLOAD","TIME_SYSTEM":"UTC","MEAN_MOTION_DOT":"0.00015259","SITE":"AFETR","EPHEMERIS_TYPE":"0","APOAPSIS":"548.594","TLE_LINE1":"1 47806U 21018V   23022.58902582  .00015259  00000-0  10410-2 0  9995","OBJECT_NAME":"STARLINK-2387","RCS_SIZE":"LARGE","OBJECT_ID":"2021-018V","REV_AT_EPOCH":"10418","PERIAPSIS":"545.827","RA_OF_ASC_NODE":"333.7294","PERIOD":"95.592","COUNTRY_CODE":"US"},{"OBJECT_NAME":"STARLINK-2388","TLE_LINE1":"1 47807U 21018W   23022.51207672  .00009734  00000-0  67124-3 0  9993","OBJECT_TYPE":"PAYLOAD","TIME_SYSTEM":"UTC","DECAY_DATE":null,"APOAPSIS":"549.111","EPHEMERIS_TYPE":"0","MEAN_MOTION_DOT":"0.00009734","SITE":"AFETR","PERIAPSIS":"545.250","REV_AT_EPOCH":"10451","OBJECT_ID":"2021-018W","COUNTRY_CODE":"US","PERIOD":"95.591","RA_OF_ASC_NODE":"309.0593","RCS_SIZE":"LARGE","INCLINATION":"53.0525","SEMIMAJOR_AXIS":"6925.315","TLE_LINE2":"2 47807  53.0525 309.0593 0002787  74.7264 285.4033 15.06410789104518","EPOCH":"2023-01-22T12:17:23.428608","MEAN_ELEMENT_THEORY":"SGP4","CENTER_NAME":"EARTH","MEAN_MOTION_DDOT":"0.0000000000000","NORAD_CAT_ID":"47807","CLASSIFICATION_TYPE":"U","REF_FRAME":"TEME","BSTAR":"0.00067124000000","ARG_OF_PERICENTER":"74.7264","LAUNCH_DATE":"2021-03-11","ELEMENT_SET_NO":"999","MEAN_ANOMALY":"285.4033","ECCENTRICITY":"0.00027870","GP_ID":"223597830","MEAN_MOTION":"15.06410789","FILE":"3758089"}];
